{
 "type": "FeatureCollection",
 "features": [
  {
   "type": "Feature",
   "geometry": {
    "type": "Polygon",
    "coordinates": [
     [
      [
       145.25342533705728,
       -41.83096905175038
      ],
      [
       145.25803299377893,
       -41.83078865999958
      ],
      [
       145.26012315874766,
       -41.83117604684783
      ],
      [
       145.2665963180738,
       -41.829728986169286
      ],
      [
       145.27064575718623,
       -41.83099698366769
      ],
      [
       145.27231801061347,
       -41.831990845964185
      ],
      [
       145.27364117243314,
       -41.834984715080324
      ],
      [
       145.27458861208862,
       -41.83587267686038
      ],
      [
       145.27608169922735,
       -41.836310397250195
      ],
      [
       145.28142014621238,
       -41.83649042005388
      ],
      [
       145.2891412729789,
       -41.83889439125654
      ],
      [
       145.29191385572975,
       -41.84105976569209
      ],
      [
       145.29856263659212,
       -41.84359628310317
      ],
      [
       145.30462350244045,
       -41.84779228009284
      ],
      [
       145.307699743605,
       -41.85055642870875
      ],
      [
       145.3130287358217,
       -41.85296278281216
      ],
      [
       145.31472699367978,
       -41.85466773481556
      ],
      [
       145.31598074267745,
       -41.85722516324773
      ],
      [
       145.31559247284534,
       -41.86042363630908
      ],
      [
       145.3182228585748,
       -41.86534321486519
      ],
      [
       145.31793701105815,
       -41.8674915010972
      ],
      [
       145.32014660614567,
       -41.86967893198518
      ],
      [
       145.31940698723966,
       -41.87243299332281
      ],
      [
       145.31959167187892,
       -41.87331268006845
      ],
      [
       145.32061767459587,
       -41.87421312126746
      ],
      [
       145.32339208721487,
       -41.87509099490912
      ],
      [
       145.32473728919996,
       -41.876642457905035
      ],
      [
       145.32467806596827,
       -41.87817380020394
      ],
      [
       145.32502147303674,
       -41.879000795173
      ],
      [
       145.32658101843856,
       -41.88060663876911
      ],
      [
       145.32738579574544,
       -41.88100878726899
      ],
      [
       145.3252363796971,
       -41.878919185843436
      ],
      [
       145.32496667760108,
       -41.87658689811531
      ],
      [
       145.32358440034756,
       -41.87498242171735
      ],
      [
       145.32098318471188,
       -41.87417089984537
      ],
      [
       145.31981812278897,
       -41.8732510249845
      ],
      [
       145.32038090294142,
       -41.869635455973246
      ],
      [
       145.318167490014,
       -41.86743842324904
      ],
      [
       145.31845821717928,
       -41.865303587946926
      ],
      [
       145.315894330137,
       -41.8606508347572
      ],
      [
       145.31630252100882,
       -41.857548194768306
      ],
      [
       145.31459481017902,
       -41.85410318714881
      ],
      [
       145.31319349582793,
       -41.852831365083446
      ],
      [
       145.31110811618467,
       -41.851590364771496
      ],
      [
       145.3075055179591,
       -41.85018455693017
      ],
      [
       145.30479439704175,
       -41.84766533119321
      ],
      [
       145.29871347181313,
       -41.84345581302566
      ],
      [
       145.29204393627444,
       -41.84090807015777
      ],
      [
       145.28927906825533,
       -41.83874658170991
      ],
      [
       145.286238149746,
       -41.837681238318794
      ],
      [
       145.28101117829786,
       -41.83623936917144
      ],
      [
       145.27505401576258,
       -41.83587755269232
      ],
      [
       145.27386418998222,
       -41.83491648992869
      ],
      [
       145.2721140400434,
       -41.83150402315796
      ],
      [
       145.26707296326524,
       -41.82959632188602
      ],
      [
       145.26009305620255,
       -41.830997211915516
      ],
      [
       145.25805473031383,
       -41.830609184084
      ],
      [
       145.25402234212376,
       -41.83070516179976
      ],
      [
       145.24800234333264,
       -41.83177504699154
      ],
      [
       145.2469798862662,
       -41.83151062890526
      ],
      [
       145.24687033671728,
       -41.829568432866154
      ],
      [
       145.24450847988408,
       -41.82809300506356
      ],
      [
       145.24139495504193,
       -41.82360966332864
      ],
      [
       145.24084589575713,
       -41.81965107484119
      ],
      [
       145.2415749971878,
       -41.816768920037156
      ],
      [
       145.2428130373461,
       -41.814356599815
      ],
      [
       145.2423120612851,
       -41.810461217928896
      ],
      [
       145.239811324909,
       -41.80788516586776
      ],
      [
       145.23750917010963,
       -41.80674613682125
      ],
      [
       145.234370451117,
       -41.80626027780808
      ],
      [
       145.2308325010492,
       -41.80782572632914
      ],
      [
       145.2290055676115,
       -41.809024486686674
      ],
      [
       145.22672215256716,
       -41.809062676066105
      ],
      [
       145.22554577277003,
       -41.809360806213036
      ],
      [
       145.2238499511429,
       -41.81132312202654
      ],
      [
       145.22118157386345,
       -41.81282658619877
      ],
      [
       145.22022644193424,
       -41.814681083709786
      ],
      [
       145.21798235513305,
       -41.81376691722615
      ],
      [
       145.21348392187187,
       -41.8125606590441
      ],
      [
       145.20404848255652,
       -41.81195264110232
      ],
      [
       145.20033347724114,
       -41.81299280894054
      ],
      [
       145.19530050236847,
       -41.816282302840456
      ],
      [
       145.1878079429429,
       -41.818118367171614
      ],
      [
       145.18408786573943,
       -41.81860108075009
      ],
      [
       145.18017503433052,
       -41.81758220870978
      ],
      [
       145.1736925217457,
       -41.81756437888386
      ],
      [
       145.17259277273385,
       -41.81777498501692
      ],
      [
       145.17007734530955,
       -41.818959938062264
      ],
      [
       145.16818163775199,
       -41.81908259568075
      ],
      [
       145.1602315160465,
       -41.81875642424298
      ],
      [
       145.15485231429372,
       -41.817156016132174
      ],
      [
       145.15318544716487,
       -41.81706316606565
      ],
      [
       145.15006149018737,
       -41.81833175183698
      ],
      [
       145.14583649242056,
       -41.818579241033014
      ],
      [
       145.13712180559358,
       -41.82235170100557
      ],
      [
       145.13526097602522,
       -41.82269425194996
      ],
      [
       145.1307913041245,
       -41.821579289765886
      ],
      [
       145.12777986383125,
       -41.81909514896828
      ],
      [
       145.12197037983714,
       -41.81760668922942
      ],
      [
       145.1177244315613,
       -41.81477448891264
      ],
      [
       145.1087269263368,
       -41.81094069432407
      ],
      [
       145.10762556844227,
       -41.80982382411646
      ],
      [
       145.10673342907575,
       -41.80534117593222
      ],
      [
       145.10315184873292,
       -41.802900978037265
      ],
      [
       145.09961710924395,
       -41.801167240296174
      ],
      [
       145.09899309992173,
       -41.799351555263655
      ],
      [
       145.09261855135932,
       -41.79200887771633
      ],
      [
       145.09167868270515,
       -41.787204436848356
      ],
      [
       145.09063724513499,
       -41.78628443202806
      ],
      [
       145.08825246778733,
       -41.78528615490633
      ],
      [
       145.08728334908912,
       -41.78394889988335
      ],
      [
       145.08705383672057,
       -41.780978442813506
      ],
      [
       145.09269754740882,
       -41.773241309073164
      ],
      [
       145.0931591853451,
       -41.77185604699657
      ],
      [
       145.09259461934187,
       -41.77037129892933
      ],
      [
       145.09044063356365,
       -41.768282865981504
      ],
      [
       145.08961639784945,
       -41.76524120695213
      ],
      [
       145.0856117981444,
       -41.76110805304064
      ],
      [
       145.08549840111112,
       -41.75927042082587
      ],
      [
       145.08657882107306,
       -41.75529167467603
      ],
      [
       145.08730484397725,
       -41.74511311476249
      ],
      [
       145.08725984826296,
       -41.74052465612223
      ],
      [
       145.08857948958502,
       -41.73868920029689
      ],
      [
       145.0955901181321,
       -41.73289043706203
      ],
      [
       145.09823919061614,
       -41.732225637119676
      ],
      [
       145.10062513577373,
       -41.73106741670828
      ],
      [
       145.10449799933897,
       -41.73076824872661
      ],
      [
       145.10782196082465,
       -41.73145429026126
      ],
      [
       145.1122441819154,
       -41.73010862981361
      ],
      [
       145.11321861325018,
       -41.729352302883186
      ],
      [
       145.11409480123223,
       -41.72768747295941
      ],
      [
       145.11621891892548,
       -41.72592687971659
      ],
      [
       145.11782555311626,
       -41.72375550909397
      ],
      [
       145.12237919234317,
       -41.721525551956184
      ],
      [
       145.12493018227295,
       -41.7213467301673
      ],
      [
       145.12939850400574,
       -41.72282545772912
      ],
      [
       145.12948420328382,
       -41.72342067281704
      ],
      [
       145.1277058076176,
       -41.7253074992654
      ],
      [
       145.12800999244413,
       -41.726133083101
      ],
      [
       145.1311805001197,
       -41.72612889215633
      ],
      [
       145.13226397615017,
       -41.72504958305675
      ],
      [
       145.13108171238792,
       -41.725962043929684
      ],
      [
       145.12813226213748,
       -41.725976835970165
      ],
      [
       145.12821320483616,
       -41.724833922746114
      ],
      [
       145.12976261185165,
       -41.72339043317452
      ],
      [
       145.12958239633096,
       -41.7227079033192
      ],
      [
       145.12498210399804,
       -41.72117077089719
      ],
      [
       145.12228642961196,
       -41.72135924627384
      ],
      [
       145.11745004115775,
       -41.72380338322081
      ],
      [
       145.11601913091135,
       -41.72582655476798
      ],
      [
       145.1138929461946,
       -41.727589455693774
      ],
      [
       145.11241179497102,
       -41.72981006207245
      ],
      [
       145.10780574084384,
       -41.731274446274035
      ],
      [
       145.10452081295392,
       -41.730588866733655
      ],
      [
       145.1005743558073,
       -41.73089138014746
      ],
      [
       145.09591837780826,
       -41.73255037788987
      ],
      [
       145.09204292260338,
       -41.73544227711495
      ],
      [
       145.08733427727756,
       -41.73976945326772
      ],
      [
       145.08687210574195,
       -41.74128404407332
      ],
      [
       145.08706441168803,
       -41.74510903296568
      ],
      [
       145.0863386268374,
       -41.75528220091329
      ],
      [
       145.0852593073118,
       -41.75925016912242
      ],
      [
       145.08537421710798,
       -41.76113686977131
      ],
      [
       145.0894012612204,
       -41.765321843005786
      ],
      [
       145.09021743724992,
       -41.76835016783137
      ],
      [
       145.092388945566,
       -41.77046487391024
      ],
      [
       145.09291855991816,
       -41.77186090492358
      ],
      [
       145.0924815933128,
       -41.773161904297545
      ],
      [
       145.0868285644001,
       -41.78091496377493
      ],
      [
       145.08704770482044,
       -41.78398540214463
      ],
      [
       145.08808463644107,
       -41.78541539908601
      ],
      [
       145.0914641722018,
       -41.7872862241502
      ],
      [
       145.09239566765922,
       -41.79207693493482
      ],
      [
       145.09878238300385,
       -41.79943865168009
      ],
      [
       145.09941381510524,
       -41.80126389698006
      ],
      [
       145.10652206896413,
       -41.80542763677764
      ],
      [
       145.1073929820388,
       -41.809870446245576
      ],
      [
       145.10857953974818,
       -41.81108316274646
      ],
      [
       145.11758864132466,
       -41.81492327707839
      ],
      [
       145.12185040264438,
       -41.817762841866006
      ],
      [
       145.12765558909825,
       -41.819249529232415
      ],
      [
       145.1306677417555,
       -41.82173401081397
      ],
      [
       145.13527370694945,
       -41.82287415171534
      ],
      [
       145.13723068859255,
       -41.822512386211656
      ],
      [
       145.1459352603894,
       -41.81874360108996
      ],
      [
       145.15011920784264,
       -41.818506739840416
      ],
      [
       145.15322556233218,
       -41.81724097877598
      ],
      [
       145.16019166678055,
       -41.81893404479908
      ],
      [
       145.16817196469304,
       -41.81926253973604
      ],
      [
       145.17016096408946,
       -41.819128838174585
      ],
      [
       145.17370558594487,
       -41.817744244188766
      ],
      [
       145.18014283601573,
       -41.81776072829607
      ],
      [
       145.18407174457332,
       -41.818780864814656
      ],
      [
       145.18785147799647,
       -41.818295548978746
      ],
      [
       145.19540709286684,
       -41.81644382274538
      ],
      [
       145.2004663443599,
       -41.813143017311944
      ],
      [
       145.2040743836811,
       -41.81213174482466
      ],
      [
       145.2134317153808,
       -41.812736503087876
      ],
      [
       145.22028536692525,
       -41.81485783381471
      ],
      [
       145.22096292841485,
       -41.81438345502369
      ],
      [
       145.22137053807668,
       -41.81293830193548
      ],
      [
       145.2240309913171,
       -41.81144220412863
      ],
      [
       145.22567292031533,
       -41.80951389423081
      ],
      [
       145.2290963405743,
       -41.80919159777912
      ],
      [
       145.23358920607734,
       -41.80667851502072
      ],
      [
       145.2353422710492,
       -41.806416636892
      ],
      [
       145.23914315710238,
       -41.807670565236926
      ],
      [
       145.2420787229918,
       -41.81050584094953
      ],
      [
       145.2425728493987,
       -41.81434182211416
      ],
      [
       145.2413434779829,
       -41.81671921118858
      ],
      [
       145.24058231927296,
       -41.820026125941155
      ],
      [
       145.24115856427326,
       -41.823643980089116
      ],
      [
       145.24171135515974,
       -41.82479656618522
      ],
      [
       145.24450217011753,
       -41.8283845496692
      ],
      [
       145.24665859033013,
       -41.829654765960186
      ],
      [
       145.24657856930287,
       -41.831285262698614
      ],
      [
       145.2471403810715,
       -41.831865134111666
      ],
      [
       145.2520956633502,
       -41.831453487729625
      ],
      [
       145.25342533705728,
       -41.83096905175038
      ]
     ]
    ]
   },
   "properties": {
    "name": "Balfour Road (Superseded)",
    "source": "Placenames Tasmania register extent (LIST Named Features layer)",
    "note": "Superseded Balfour Road corridor, north-west of the field.",
    "accuracy": "corridor polygon, not a surveyed centreline"
   }
  },
  {
   "type": "Feature",
   "geometry": {
    "type": "Polygon",
    "coordinates": [
     [
      [
       145.41885341859782,
       -41.46674926692323
      ],
      [
       145.41667715819386,
       -41.46793171382222
      ],
      [
       145.41674744417838,
       -41.46859455506031
      ],
      [
       145.4161040366359,
       -41.46892973992361
      ],
      [
       145.41610440225026,
       -41.470117165754324
      ],
      [
       145.4149891034008,
       -41.47075415301373
      ],
      [
       145.41285011230138,
       -41.47000995694577
      ],
      [
       145.41132547363483,
       -41.4703767489433
      ],
      [
       145.41123483272438,
       -41.469532101717796
      ],
      [
       145.40998281298363,
       -41.46893255895456
      ],
      [
       145.4063249000961,
       -41.46835743371846
      ],
      [
       145.40528168026847,
       -41.46874162183526
      ],
      [
       145.40516240466,
       -41.469531621786935
      ],
      [
       145.4038498986563,
       -41.47009706403209
      ],
      [
       145.40355807285144,
       -41.46964025367574
      ],
      [
       145.40309025720092,
       -41.46972128305011
      ],
      [
       145.40153569295734,
       -41.4707825101266
      ],
      [
       145.40151156600544,
       -41.47141693577905
      ],
      [
       145.39941402407155,
       -41.472024816004996
      ],
      [
       145.39846688355505,
       -41.47383027381985
      ],
      [
       145.39679478823126,
       -41.47385843170458
      ],
      [
       145.3962668240843,
       -41.474155200325384
      ],
      [
       145.394631966624,
       -41.47384566424068
      ],
      [
       145.3943093250116,
       -41.474132822869535
      ],
      [
       145.39366929243968,
       -41.47365020710548
      ],
      [
       145.3927585875912,
       -41.47398266009401
      ],
      [
       145.39226593531967,
       -41.47366202423032
      ],
      [
       145.3900001793572,
       -41.47357205195161
      ],
      [
       145.38909386906707,
       -41.47399920007953
      ],
      [
       145.3918943768468,
       -41.473808720090005
      ],
      [
       145.3926882593859,
       -41.47416837426056
      ],
      [
       145.39360424183664,
       -41.47382478493234
      ],
      [
       145.39431195797368,
       -41.47431323083341
      ],
      [
       145.3983393003268,
       -41.47399295333119
      ],
      [
       145.3986061862045,
       -41.47446955810544
      ],
      [
       145.40045609585223,
       -41.47410072294857
      ],
      [
       145.40109310738984,
       -41.474398625246444
      ],
      [
       145.41525721278384,
       -41.47456774925147
      ],
      [
       145.4116298821419,
       -41.474196443153645
      ],
      [
       145.39855428783557,
       -41.4740752197479
      ],
      [
       145.39957698026066,
       -41.47215694524522
      ],
      [
       145.40172163074644,
       -41.47152014071613
      ],
      [
       145.40172674844854,
       -41.47089585498953
      ],
      [
       145.4032121118725,
       -41.469876370755536
      ],
      [
       145.40386371474534,
       -41.470280294122965
      ],
      [
       145.40532328484258,
       -41.46966734716889
      ],
      [
       145.40553821755412,
       -41.46879863532931
      ],
      [
       145.40854477819875,
       -41.46872023873301
      ],
      [
       145.40882040558242,
       -41.46919097027593
      ],
      [
       145.41104001598697,
       -41.46963774700034
      ],
      [
       145.4112341239536,
       -41.47054593594377
      ],
      [
       145.41282753314667,
       -41.470189446821905
      ],
      [
       145.4150296120302,
       -41.470932003849605
      ],
      [
       145.41632489104177,
       -41.47018960029051
      ],
      [
       145.41633766239016,
       -41.469000297107755
      ],
      [
       145.41700779660894,
       -41.468588047291924
      ],
      [
       145.41679515010983,
       -41.46812264121043
      ],
      [
       145.41824464919443,
       -41.467211082916606
      ],
      [
       145.42246388876023,
       -41.466572223830845
      ],
      [
       145.4231192277263,
       -41.46797200476402
      ],
      [
       145.4205002416177,
       -41.46965727873784
      ],
      [
       145.42058804205527,
       -41.4702957331772
      ],
      [
       145.4196627692278,
       -41.470769208287024
      ],
      [
       145.4180694543578,
       -41.47295825371456
      ],
      [
       145.41785535618118,
       -41.474595696820415
      ],
      [
       145.41839662527585,
       -41.47285242807301
      ],
      [
       145.41984725444104,
       -41.47088644773422
      ],
      [
       145.42078605859166,
       -41.47040196012495
      ],
      [
       145.4210907895939,
       -41.469279370175
      ],
      [
       145.42335865300402,
       -41.467992360242334
      ],
      [
       145.42243792834677,
       -41.4658759971091
      ],
      [
       145.42219600844751,
       -41.46633184715347
      ],
      [
       145.41885341859782,
       -41.46674926692323
      ]
     ]
    ]
   },
   "properties": {
    "name": "Cleveland Tram Road (Unofficial)",
    "source": "Placenames Tasmania register extent (LIST Named Features layer)",
    "note": "Tram road to the Mount Cleveland workings (unofficial name).",
    "accuracy": "corridor polygon, not a surveyed centreline"
   }
  },
  {
   "type": "Feature",
   "geometry": {
    "type": "Polygon",
    "coordinates": [
     [
      [
       145.1758674858807,
       -41.911034330121936
      ],
      [
       145.1760184783069,
       -41.91313503419953
      ],
      [
       145.1764248536836,
       -41.91386185730619
      ],
      [
       145.17754830833746,
       -41.91468632202579
      ],
      [
       145.1781417488889,
       -41.91481628300194
      ],
      [
       145.17923039113055,
       -41.91447594799124
      ],
      [
       145.18094189464753,
       -41.91537212581451
      ],
      [
       145.18210017967994,
       -41.915161883054736
      ],
      [
       145.18100905539313,
       -41.91519891481544
      ],
      [
       145.17932726904408,
       -41.91430423328466
      ],
      [
       145.17776225200384,
       -41.91457645577882
      ],
      [
       145.17624762865444,
       -41.9130788383249
      ],
      [
       145.17607282907656,
       -41.910685726813306
      ],
      [
       145.17688724261146,
       -41.90959527602428
      ],
      [
       145.17715050378695,
       -41.90835753500691
      ],
      [
       145.17678439898614,
       -41.907336129727916
      ],
      [
       145.1775407382345,
       -41.905676223127834
      ],
      [
       145.1764010123959,
       -41.90269534823759
      ],
      [
       145.1755369561618,
       -41.90212980524664
      ],
      [
       145.17361198867877,
       -41.90183830922396
      ],
      [
       145.17298002028318,
       -41.900451564744245
      ],
      [
       145.1720087087974,
       -41.89978525232048
      ],
      [
       145.17252707983542,
       -41.896609609005345
      ],
      [
       145.1722130153374,
       -41.89565891911661
      ],
      [
       145.17163434668248,
       -41.89525803903026
      ],
      [
       145.1698130573597,
       -41.894943692290695
      ],
      [
       145.16670195078234,
       -41.89303752908556
      ],
      [
       145.1645580360168,
       -41.89241845226567
      ],
      [
       145.16371391968704,
       -41.89152706186186
      ],
      [
       145.1645629120722,
       -41.8906074428516
      ],
      [
       145.16441887260626,
       -41.88999667821377
      ],
      [
       145.16301309542487,
       -41.88990934788193
      ],
      [
       145.16273776538355,
       -41.88859161310127
      ],
      [
       145.1604875269193,
       -41.8878538938637
      ],
      [
       145.15996727121578,
       -41.886824521303296
      ],
      [
       145.1590044227583,
       -41.88607540183277
      ],
      [
       145.15824513883243,
       -41.886032225215025
      ],
      [
       145.15548029237283,
       -41.887174647920496
      ],
      [
       145.15344767707435,
       -41.88700820988169
      ],
      [
       145.1513825023385,
       -41.88763601825033
      ],
      [
       145.14968446007603,
       -41.88605919480478
      ],
      [
       145.1491602122594,
       -41.88673369166744
      ],
      [
       145.14626213306678,
       -41.888086037210584
      ],
      [
       145.14490982900102,
       -41.88666351206422
      ],
      [
       145.14363456175906,
       -41.88644209728158
      ],
      [
       145.14185071781057,
       -41.884048569874196
      ],
      [
       145.13782452889427,
       -41.8826964137471
      ],
      [
       145.1374125830645,
       -41.881054264694626
      ],
      [
       145.13672327340768,
       -41.880076840036104
      ],
      [
       145.13359317914012,
       -41.88060127876959
      ],
      [
       145.1314117076092,
       -41.879777482831656
      ],
      [
       145.12878543526534,
       -41.87930933588724
      ],
      [
       145.1269348357115,
       -41.879248319983006
      ],
      [
       145.12075293086178,
       -41.879869783765926
      ],
      [
       145.11854661282848,
       -41.87885459725068
      ],
      [
       145.11327723730565,
       -41.87874590604671
      ],
      [
       145.11240896887116,
       -41.87742468900003
      ],
      [
       145.11077782863947,
       -41.87617839020985
      ],
      [
       145.11025021483545,
       -41.87617824105054
      ],
      [
       145.1097158070729,
       -41.87682929268588
      ],
      [
       145.10891385137438,
       -41.876479558859344
      ],
      [
       145.1086481198319,
       -41.87421668581613
      ],
      [
       145.10789976570805,
       -41.87245042925897
      ],
      [
       145.10926382602588,
       -41.87096755499025
      ],
      [
       145.10946474412071,
       -41.870265542858114
      ],
      [
       145.10916947597164,
       -41.86964987573454
      ],
      [
       145.1056186710121,
       -41.86904102597688
      ],
      [
       145.10125821897864,
       -41.86990167718116
      ],
      [
       145.10029573883037,
       -41.8693558828097
      ],
      [
       145.0998246820583,
       -41.86833695771784
      ],
      [
       145.09893130840658,
       -41.86807560270281
      ],
      [
       145.09789133688696,
       -41.866287765773976
      ],
      [
       145.09670464263377,
       -41.86612270896439
      ],
      [
       145.09444246915265,
       -41.866874065250904
      ],
      [
       145.09048106314137,
       -41.865828855022976
      ],
      [
       145.09017465678113,
       -41.86394192069262
      ],
      [
       145.08865724595938,
       -41.862596327033486
      ],
      [
       145.0880717132774,
       -41.86067413869474
      ],
      [
       145.08652903194837,
       -41.85898922111258
      ],
      [
       145.08426267860634,
       -41.85792738213343
      ],
      [
       145.08405950304527,
       -41.85726335331872
      ],
      [
       145.08249750883598,
       -41.85628439527774
      ],
      [
       145.08121282185994,
       -41.85465592518382
      ],
      [
       145.0819886590416,
       -41.853725032297476
      ],
      [
       145.0814727628621,
       -41.851564215045386
      ],
      [
       145.0772722405936,
       -41.84915492626234
      ],
      [
       145.07468055428646,
       -41.84864864090303
      ],
      [
       145.0738852021036,
       -41.84876406420251
      ],
      [
       145.07323417864419,
       -41.848124706882324
      ],
      [
       145.07527554712672,
       -41.84603368583965
      ],
      [
       145.07522067174096,
       -41.84446041069026
      ],
      [
       145.07434342644183,
       -41.84365848475733
      ],
      [
       145.07265249434488,
       -41.84289620298589
      ],
      [
       145.07287042024294,
       -41.8410624112105
      ],
      [
       145.07243619888908,
       -41.83880756532808
      ],
      [
       145.07095116784177,
       -41.83833204415906
      ],
      [
       145.06987808442082,
       -41.83664641285896
      ],
      [
       145.0671589280732,
       -41.83412292997364
      ],
      [
       145.06656343307472,
       -41.83118189091261
      ],
      [
       145.0656070623688,
       -41.83046956569876
      ],
      [
       145.06425865519466,
       -41.83028278487704
      ],
      [
       145.06359682320573,
       -41.82429713707161
      ],
      [
       145.06306861831027,
       -41.82349741593709
      ],
      [
       145.06219269173795,
       -41.82301820023019
      ],
      [
       145.06335811568195,
       -41.82432961925785
      ],
      [
       145.0640432086468,
       -41.830366365958476
      ],
      [
       145.066348063782,
       -41.83126309798971
      ],
      [
       145.06694696070042,
       -41.83420857489319
      ],
      [
       145.06968330002277,
       -41.8367525700985
      ],
      [
       145.07076339299795,
       -41.83844530424858
      ],
      [
       145.07221179973112,
       -41.838873937149636
      ],
      [
       145.072434261223,
       -41.842972614938866
      ],
      [
       145.07499200468706,
       -41.844517073146925
      ],
      [
       145.0750514974134,
       -41.84596746398222
      ],
      [
       145.07444002587758,
       -41.846866150935476
      ],
      [
       145.0732002843102,
       -41.84746524580575
      ],
      [
       145.0730156751294,
       -41.84821861201497
      ],
      [
       145.07378588975567,
       -41.84892936389116
      ],
      [
       145.07715793805855,
       -41.84931354407891
      ],
      [
       145.08128159597976,
       -41.85167392404853
      ],
      [
       145.08174649929217,
       -41.85372319023557
      ],
      [
       145.08099876590416,
       -41.85474061123539
      ],
      [
       145.08230888957576,
       -41.856396680851766
      ],
      [
       145.08386621703713,
       -41.85737103997624
      ],
      [
       145.08408033138346,
       -41.858045764693706
      ],
      [
       145.08636365479953,
       -41.85912032176893
      ],
      [
       145.08786394912187,
       -41.86076544225197
      ],
      [
       145.08843375409984,
       -41.862664461121874
      ],
      [
       145.0899466338193,
       -41.86400062307815
      ],
      [
       145.09030177558034,
       -41.865949522918534
      ],
      [
       145.09442413004612,
       -41.8670545479384
      ],
      [
       145.0967549437981,
       -41.86629916986328
      ],
      [
       145.09776412825624,
       -41.86644684818735
      ],
      [
       145.09873853443818,
       -41.86819058087214
      ],
      [
       145.09960401629866,
       -41.868425040677636
      ],
      [
       145.10010422070673,
       -41.869465289700635
      ],
      [
       145.10120069086784,
       -41.870078080154705
      ],
      [
       145.10563129503686,
       -41.86922087975563
      ],
      [
       145.1090224792518,
       -41.86979409925731
      ],
      [
       145.1090370032133,
       -41.87090616387873
      ],
      [
       145.10765938102958,
       -41.87242971630812
      ],
      [
       145.10868381079646,
       -41.87653510268945
      ],
      [
       145.1097544561897,
       -41.87701054321823
      ],
      [
       145.11062740125357,
       -41.87632781689068
      ],
      [
       145.1131498526051,
       -41.87890616071324
      ],
      [
       145.1185115497863,
       -41.87903373383669
      ],
      [
       145.12074193638102,
       -41.88005004516246
      ],
      [
       145.12875262609623,
       -41.87948783178639
      ],
      [
       145.13356421116717,
       -41.880780473329025
      ],
      [
       145.13660676730524,
       -41.880239295839566
      ],
      [
       145.13764473019182,
       -41.88282333390573
      ],
      [
       145.14170310304982,
       -41.8841922452685
      ],
      [
       145.1434481541511,
       -41.88655630008061
      ],
      [
       145.14473955603384,
       -41.88679207686012
      ],
      [
       145.1462175487809,
       -41.88826308883767
      ],
      [
       145.149331939599,
       -41.88686932716328
      ],
      [
       145.14974364557852,
       -41.886234160134805
      ],
      [
       145.15138891181806,
       -41.887816897066294
      ],
      [
       145.1534818292249,
       -41.887186561891454
      ],
      [
       145.15555482289702,
       -41.88734614602461
      ],
      [
       145.15886785727557,
       -41.8862238751116
      ],
      [
       145.1603274183896,
       -41.88798891975428
      ],
      [
       145.16254419640615,
       -41.888699061748646
      ],
      [
       145.16283771194207,
       -41.890039513774454
      ],
      [
       145.16421852943327,
       -41.89009826909729
      ],
      [
       145.16433838265846,
       -41.89053951776515
      ],
      [
       145.1634723483341,
       -41.89152628682099
      ],
      [
       145.16439422283486,
       -41.89255069071001
      ],
      [
       145.1665667453489,
       -41.89318684880378
      ],
      [
       145.1696911146532,
       -41.89509943688954
      ],
      [
       145.1720352387427,
       -41.89579258113822
      ],
      [
       145.1717900489758,
       -41.89986199814365
      ],
      [
       145.17277186805543,
       -41.900542473830306
      ],
      [
       145.17344681095597,
       -41.90196981676803
      ],
      [
       145.1762009773451,
       -41.90279649703849
      ],
      [
       145.17730353628713,
       -41.90570871079587
      ],
      [
       145.1765431537216,
       -41.907320279751566
      ],
      [
       145.17690920821678,
       -41.908357924096556
      ],
      [
       145.17665134771278,
       -41.909557843239206
      ],
      [
       145.1758674858807,
       -41.911034330121936
      ]
     ]
    ]
   },
   "properties": {
    "name": "Climies Track",
    "source": "Placenames Tasmania register extent (LIST Named Features layer)",
    "note": "Registered track corridor toward Granville Harbour.",
    "accuracy": "corridor polygon, not a surveyed centreline"
   }
  },
  {
   "type": "Feature",
   "geometry": {
    "type": "Polygon",
    "coordinates": [
     [
      [
       145.17873486604677,
       -41.598848771298
      ],
      [
       145.17810125014094,
       -41.6024062337824
      ],
      [
       145.17624768434996,
       -41.605431382778924
      ],
      [
       145.17248660624034,
       -41.608293875723795
      ],
      [
       145.1690223108393,
       -41.609476991121674
      ],
      [
       145.16860012780862,
       -41.61054072892533
      ],
      [
       145.16745560496634,
       -41.61023344487417
      ],
      [
       145.16269713997318,
       -41.61116448876256
      ],
      [
       145.15567346519322,
       -41.61345213818565
      ],
      [
       145.14964175326918,
       -41.61376005367007
      ],
      [
       145.146694494908,
       -41.614855503161145
      ],
      [
       145.1432045813517,
       -41.615054693823005
      ],
      [
       145.14111378217228,
       -41.616183160203704
      ],
      [
       145.13923518662256,
       -41.61495701868122
      ],
      [
       145.13397324196376,
       -41.614582905992535
      ],
      [
       145.13262741115796,
       -41.616173201866864
      ],
      [
       145.13014061843162,
       -41.61628189392762
      ],
      [
       145.12703148455464,
       -41.61760105304604
      ],
      [
       145.1255043836059,
       -41.61878900693297
      ],
      [
       145.1236783969925,
       -41.6236010633341
      ],
      [
       145.12379515911476,
       -41.625675473787105
      ],
      [
       145.12227581422027,
       -41.626027694762776
      ],
      [
       145.12259388700113,
       -41.626929343678476
      ],
      [
       145.11955917495212,
       -41.62565086296136
      ],
      [
       145.11718967255752,
       -41.62534326612934
      ],
      [
       145.11326432582007,
       -41.626265746025865
      ],
      [
       145.1119577091713,
       -41.62719018820445
      ],
      [
       145.10989255868992,
       -41.62625567710791
      ],
      [
       145.10951227488067,
       -41.627219880837366
      ],
      [
       145.1097751982896,
       -41.62820997593272
      ],
      [
       145.1076897270182,
       -41.630888111071435
      ],
      [
       145.1065846195557,
       -41.63137288798248
      ],
      [
       145.10467739559618,
       -41.63105476617717
      ],
      [
       145.10414646072056,
       -41.631956205131026
      ],
      [
       145.10268591774786,
       -41.631927709817816
      ],
      [
       145.10189290208305,
       -41.632470239215195
      ],
      [
       145.1006389958802,
       -41.631786927745836
      ],
      [
       145.09922537281315,
       -41.63259266789987
      ],
      [
       145.09624374041763,
       -41.63563797495953
      ],
      [
       145.09619795238933,
       -41.63605864006143
      ],
      [
       145.09740047316126,
       -41.637135284972636
      ],
      [
       145.09432652539556,
       -41.63801941508842
      ],
      [
       145.0926561171079,
       -41.64123852615579
      ],
      [
       145.0910415966073,
       -41.642765498935645
      ],
      [
       145.09044334198427,
       -41.64396397971723
      ],
      [
       145.08834707386146,
       -41.643769069973345
      ],
      [
       145.0865288145561,
       -41.644807911845085
      ],
      [
       145.08425596819114,
       -41.644788222181546
      ],
      [
       145.08306857325192,
       -41.646850023056395
      ],
      [
       145.08527109769992,
       -41.648297339271004
      ],
      [
       145.07787623006138,
       -41.65094259670607
      ],
      [
       145.0765204243626,
       -41.65244598871522
      ],
      [
       145.07538345186032,
       -41.65292194489944
      ],
      [
       145.07607549868385,
       -41.65471401186517
      ],
      [
       145.07754758231303,
       -41.655930012251154
      ],
      [
       145.07701133659742,
       -41.6569653203294
      ],
      [
       145.0769919132243,
       -41.65862916690238
      ],
      [
       145.07503636259747,
       -41.66009116325515
      ],
      [
       145.07500900710048,
       -41.66046540582352
      ],
      [
       145.07818249628448,
       -41.6635431652691
      ],
      [
       145.07927424130713,
       -41.663643708211296
      ],
      [
       145.08033680186284,
       -41.663221221308255
      ],
      [
       145.0809823240395,
       -41.66366961517854
      ],
      [
       145.08005883167291,
       -41.66776865208827
      ],
      [
       145.08050525304662,
       -41.668154392742736
      ],
      [
       145.0811809936511,
       -41.66816204806392
      ],
      [
       145.08139967593058,
       -41.668944377767254
      ],
      [
       145.08299649872177,
       -41.67068068722764
      ],
      [
       145.0817172178071,
       -41.67247760792799
      ],
      [
       145.0822269497471,
       -41.67398552696487
      ],
      [
       145.08076776233221,
       -41.675754588021796
      ],
      [
       145.07921008273127,
       -41.67604331888631
      ],
      [
       145.07770005336616,
       -41.67719504571369
      ],
      [
       145.07864681928513,
       -41.6776566002243
      ],
      [
       145.0837240613384,
       -41.678481122743484
      ],
      [
       145.08478095981286,
       -41.679201377775776
      ],
      [
       145.0839436203736,
       -41.68444445816665
      ],
      [
       145.08226416605098,
       -41.68774532282265
      ],
      [
       145.0826484761093,
       -41.6887371752307
      ],
      [
       145.08197778313846,
       -41.692662163949954
      ],
      [
       145.08240571628528,
       -41.693068445898774
      ],
      [
       145.0840767138678,
       -41.69285558615505
      ],
      [
       145.0866187934082,
       -41.69545928787919
      ],
      [
       145.08512143118702,
       -41.69786295271233
      ],
      [
       145.08454289907604,
       -41.7011422987988
      ],
      [
       145.08353756479718,
       -41.70220000597285
      ],
      [
       145.08153170581951,
       -41.70272926014329
      ],
      [
       145.08016512033734,
       -41.70631235668233
      ],
      [
       145.0777402565684,
       -41.708582070029955
      ],
      [
       145.07747630997835,
       -41.7098261367499
      ],
      [
       145.07790632182676,
       -41.71205149120992
      ],
      [
       145.07637633818428,
       -41.71368701784591
      ],
      [
       145.07664119297112,
       -41.715839015160114
      ],
      [
       145.07610557068628,
       -41.71676030509368
      ],
      [
       145.0748297249293,
       -41.717485432124235
      ],
      [
       145.07503154223767,
       -41.7181241529022
      ],
      [
       145.07636303862654,
       -41.718859412861995
      ],
      [
       145.0787440340669,
       -41.71999287292587
      ],
      [
       145.07999409009037,
       -41.72016696806183
      ],
      [
       145.0781836281617,
       -41.72399541172163
      ],
      [
       145.07944849740423,
       -41.72629649285619
      ],
      [
       145.08558880217143,
       -41.72808127088959
      ],
      [
       145.08605693043566,
       -41.73024713881628
      ],
      [
       145.08730365730275,
       -41.731540282255075
      ],
      [
       145.09018548956513,
       -41.733086333930494
      ],
      [
       145.09186198573548,
       -41.73280104673747
      ],
      [
       145.0939828497308,
       -41.73411988530483
      ],
      [
       145.0919831352296,
       -41.73264391886069
      ],
      [
       145.09026159034445,
       -41.73291519193352
      ],
      [
       145.08747328797446,
       -41.73141248684281
      ],
      [
       145.08627724944566,
       -41.73017189029088
      ],
      [
       145.08573625703204,
       -41.72793896529337
      ],
      [
       145.0796172243708,
       -41.72616786705977
      ],
      [
       145.0784234100706,
       -41.72401028601174
      ],
      [
       145.08021107365568,
       -41.72008621091412
      ],
      [
       145.07885285508206,
       -41.71983177581883
      ],
      [
       145.07509000459638,
       -41.717782522964825
      ],
      [
       145.07528160177176,
       -41.717228808828494
      ],
      [
       145.076294681325,
       -41.716876375749294
      ],
      [
       145.0768656056038,
       -41.71590421886167
      ],
      [
       145.0770689419633,
       -41.71499501222021
      ],
      [
       145.0766117893152,
       -41.7137244110373
      ],
      [
       145.07813946518573,
       -41.712095371302674
      ],
      [
       145.07771658416402,
       -41.70981804310908
      ],
      [
       145.0779603312366,
       -41.708654814237875
      ],
      [
       145.08037736708616,
       -41.70639709803065
      ],
      [
       145.08173965412968,
       -41.702821646681585
      ],
      [
       145.083677911289,
       -41.70234656710058
      ],
      [
       145.08477166763953,
       -41.70120527524488
      ],
      [
       145.0853532019202,
       -41.69791099368872
      ],
      [
       145.08686243268292,
       -41.69546770126958
      ],
      [
       145.0861308033931,
       -41.69425276289782
      ],
      [
       145.0842300562868,
       -41.692716520968396
      ],
      [
       145.08221779591437,
       -41.69265218523223
      ],
      [
       145.08288901529804,
       -41.68874291622736
      ],
      [
       145.08250183332572,
       -41.6877723632086
      ],
      [
       145.08418004168502,
       -41.68447716886239
      ],
      [
       145.08500859110922,
       -41.67914136611221
      ],
      [
       145.08380425484208,
       -41.678311281886316
      ],
      [
       145.07793991432683,
       -41.67715418726826
      ],
      [
       145.07933844479882,
       -41.67619596420881
      ],
      [
       145.08093227260682,
       -41.67588704326541
      ],
      [
       145.08244299996284,
       -41.67406735118487
      ],
      [
       145.0819526410903,
       -41.672513689787365
      ],
      [
       145.08307038695054,
       -41.6714621468852
      ],
      [
       145.0832364567005,
       -41.67067055680467
      ],
      [
       145.08138118411048,
       -41.668061024324345
      ],
      [
       145.08029171182545,
       -41.667720273878395
      ],
      [
       145.0811887541968,
       -41.66357744218961
      ],
      [
       145.08035976190317,
       -41.66304182127753
      ],
      [
       145.0783353706812,
       -41.66340177378564
      ],
      [
       145.07523577691248,
       -41.660405937755634
      ],
      [
       145.07721331919578,
       -41.65869907227783
      ],
      [
       145.07724884487033,
       -41.656992626006435
      ],
      [
       145.07778909437712,
       -41.65592664227671
      ],
      [
       145.07628127576598,
       -41.654620750140644
      ],
      [
       145.07559547133533,
       -41.65300979177735
      ],
      [
       145.07670286321365,
       -41.65256561674825
      ],
      [
       145.07800465590935,
       -41.65109478000218
      ],
      [
       145.08545568981268,
       -41.648413646929846
      ],
      [
       145.08531497141834,
       -41.64788390028977
      ],
      [
       145.0833374587794,
       -41.64693006530689
      ],
      [
       145.08443156726963,
       -41.644912078798534
      ],
      [
       145.0866093997253,
       -41.6449781458567
      ],
      [
       145.08839276307515,
       -41.64394679106263
      ],
      [
       145.09059992103326,
       -41.64410214397698
      ],
      [
       145.0928700949102,
       -41.641321059962934
      ],
      [
       145.09451099084586,
       -41.638135437173894
      ],
      [
       145.0976031564455,
       -41.63723241695108
      ],
      [
       145.09647206162012,
       -41.635694439282645
      ],
      [
       145.0994067570421,
       -41.63271095974684
      ],
      [
       145.10070448396274,
       -41.631963747255526
      ],
      [
       145.10190980029182,
       -41.63265213680276
      ],
      [
       145.10274744336166,
       -41.632103268006766
      ],
      [
       145.1042873417099,
       -41.63210244484072
      ],
      [
       145.104749075766,
       -41.631228448744636
      ],
      [
       145.10660542094442,
       -41.6315526891053
      ],
      [
       145.10783897132288,
       -41.6310295108126
      ],
      [
       145.1100056098718,
       -41.62826640983217
      ],
      [
       145.11002606720575,
       -41.62641141378239
      ],
      [
       145.1120136562472,
       -41.627366123905404
      ],
      [
       145.11336727634492,
       -41.62642860174209
      ],
      [
       145.11717766118386,
       -41.62552320695237
      ],
      [
       145.119478171168,
       -41.62582062985918
      ],
      [
       145.1227334429754,
       -41.627079892912924
      ],
      [
       145.12246553930657,
       -41.62614121297403
      ],
      [
       145.12402658579327,
       -41.625727253118086
      ],
      [
       145.12391548575218,
       -41.62362987995318
      ],
      [
       145.12549022076712,
       -41.61924395691434
      ],
      [
       145.1271662731697,
       -41.61775037493393
      ],
      [
       145.13024716581089,
       -41.616443619729615
      ],
      [
       145.1325291570254,
       -41.6164266782672
      ],
      [
       145.13424110880172,
       -41.614704664130535
      ],
      [
       145.13601599385188,
       -41.61518598712453
      ],
      [
       145.13932201687962,
       -41.615166004324514
      ],
      [
       145.14035526181434,
       -41.61621911510592
      ],
      [
       145.14116210075477,
       -41.6163599546779
      ],
      [
       145.1432762040293,
       -41.6152267230311
      ],
      [
       145.1467644071933,
       -41.61502797414302
      ],
      [
       145.1496883650526,
       -41.613936780237054
      ],
      [
       145.15573280700255,
       -41.613626842015535
      ],
      [
       145.16276619885898,
       -41.61133700991216
      ],
      [
       145.16749468976604,
       -41.6104113497743
      ],
      [
       145.1686471393424,
       -41.61072182397221
      ],
      [
       145.16917110688465,
       -41.60961876625877
      ],
      [
       145.17262271178564,
       -41.608442378898665
      ],
      [
       145.1762502193957,
       -41.60573519015237
      ],
      [
       145.17833314035008,
       -41.602452932671895
      ],
      [
       145.1790200506068,
       -41.598831995172674
      ],
      [
       145.18117048714123,
       -41.59872442714198
      ],
      [
       145.18255366181174,
       -41.5978980062508
      ],
      [
       145.18254214900307,
       -41.596349173250054
      ],
      [
       145.18338967084608,
       -41.594882207059044
      ],
      [
       145.184296473413,
       -41.594356600923625
      ],
      [
       145.18561058201124,
       -41.592162659938694
      ],
      [
       145.18536849322868,
       -41.590496913884486
      ],
      [
       145.18724800775487,
       -41.58917938075389
      ],
      [
       145.18939941267328,
       -41.58883645617285
      ],
      [
       145.19063595533996,
       -41.58799131027222
      ],
      [
       145.18997078880463,
       -41.58428726110521
      ],
      [
       145.1903361453088,
       -41.583170840974255
      ],
      [
       145.189523336165,
       -41.58184055596275
      ],
      [
       145.19065679805115,
       -41.57905870684708
      ],
      [
       145.19036303098693,
       -41.5752609259633
      ],
      [
       145.19136510168642,
       -41.57313258022063
      ],
      [
       145.19178766560282,
       -41.57096762509715
      ],
      [
       145.19271833281354,
       -41.57065305428077
      ],
      [
       145.19270057222207,
       -41.567475780184644
      ],
      [
       145.19334418008881,
       -41.56609170410804
      ],
      [
       145.19287061072887,
       -41.56353693972454
      ],
      [
       145.193076324929,
       -41.56289247727164
      ],
      [
       145.19416332235542,
       -41.562445880016156
      ],
      [
       145.19446324737086,
       -41.56101598367193
      ],
      [
       145.19408922841242,
       -41.559497768280316
      ],
      [
       145.1929833492971,
       -41.55785612281443
      ],
      [
       145.19351681472688,
       -41.55620759587
      ],
      [
       145.192253539994,
       -41.554414433133594
      ],
      [
       145.1908658926117,
       -41.54952904297869
      ],
      [
       145.19160143675953,
       -41.54856108723212
      ],
      [
       145.19455405716462,
       -41.546727422030315
      ],
      [
       145.1958684936479,
       -41.544763176856975
      ],
      [
       145.19656444993953,
       -41.54574821066533
      ],
      [
       145.1969926301231,
       -41.54587056995241
      ],
      [
       145.198603119883,
       -41.54488058224992
      ],
      [
       145.19949502568755,
       -41.545111455234796
      ],
      [
       145.1999624667406,
       -41.54489564181047
      ],
      [
       145.19995143093732,
       -41.543839229233825
      ],
      [
       145.20101642233422,
       -41.54231068232463
      ],
      [
       145.2002848631129,
       -41.541217522176055
      ],
      [
       145.19926393228408,
       -41.54073717187427
      ],
      [
       145.1988322109417,
       -41.53884001113014
      ],
      [
       145.19969578657714,
       -41.537058396790385
      ],
      [
       145.2027129078163,
       -41.534395268853494
      ],
      [
       145.20302775295036,
       -41.532695385133216
      ],
      [
       145.20250652077812,
       -41.53213019332212
      ],
      [
       145.20531180220524,
       -41.53076410499095
      ],
      [
       145.20707738340397,
       -41.52951845470931
      ],
      [
       145.20912846357308,
       -41.530116356172925
      ],
      [
       145.2105853243514,
       -41.52967660974943
      ],
      [
       145.21174220262202,
       -41.527664666004114
      ],
      [
       145.21218948907338,
       -41.52577684122328
      ],
      [
       145.21306475628225,
       -41.524696081049015
      ],
      [
       145.2129140746731,
       -41.52382267612988
      ],
      [
       145.21434056700497,
       -41.52040149520261
      ],
      [
       145.21509819623412,
       -41.51621285825041
      ],
      [
       145.21613062639693,
       -41.5147154288602
      ],
      [
       145.2196075233647,
       -41.51160215030267
      ],
      [
       145.21594344084787,
       -41.514602856834145
      ],
      [
       145.21487380336438,
       -41.5161496336985
      ],
      [
       145.21410741286618,
       -41.52035932671325
      ],
      [
       145.21267866486468,
       -41.52378761201078
      ],
      [
       145.21283485404481,
       -41.52464271013191
      ],
      [
       145.21196341815065,
       -41.525716638954215
      ],
      [
       145.2103885618631,
       -41.529573305119776
      ],
      [
       145.2090010914489,
       -41.52993017495915
      ],
      [
       145.20697840163606,
       -41.52935372767806
      ],
      [
       145.20227988212005,
       -41.53206901180352
      ],
      [
       145.20278797373635,
       -41.53270530793143
      ],
      [
       145.20249014628706,
       -41.53432865278702
      ],
      [
       145.19949952085727,
       -41.53695471529357
      ],
      [
       145.19859621992333,
       -41.53880753983664
      ],
      [
       145.19904928703352,
       -41.54081840884139
      ],
      [
       145.2000864306566,
       -41.541322501907075
      ],
      [
       145.20077865265154,
       -41.54233756321689
      ],
      [
       145.19972116039068,
       -41.543788855952045
      ],
      [
       145.19974768943763,
       -41.54481316883945
      ],
      [
       145.19849992501642,
       -41.54471776611717
      ],
      [
       145.19699594490655,
       -41.5456893077585
      ],
      [
       145.19574625000575,
       -41.5446065438916
      ],
      [
       145.19436175301513,
       -41.54661942095572
      ],
      [
       145.19142992771054,
       -41.54843492717525
      ],
      [
       145.19063585832188,
       -41.54947713392685
      ],
      [
       145.1920229747999,
       -41.55446394104071
      ],
      [
       145.19328280988356,
       -41.556247505209434
      ],
      [
       145.19274669172876,
       -41.55788642275772
      ],
      [
       145.19422322471348,
       -41.561015923177166
      ],
      [
       145.19394560486649,
       -41.56236987669775
      ],
      [
       145.1928775223667,
       -41.56278814018416
      ],
      [
       145.1926326829428,
       -41.56351227091548
      ],
      [
       145.19310444668895,
       -41.56608167419033
      ],
      [
       145.1924627962512,
       -41.56744994611871
      ],
      [
       145.192484786111,
       -41.57060931500646
      ],
      [
       145.1915642599815,
       -41.570896521048915
      ],
      [
       145.1901236146924,
       -41.575248169084034
      ],
      [
       145.19041844266698,
       -41.57903708331503
      ],
      [
       145.18928338627117,
       -41.58184273172855
      ],
      [
       145.19009971860754,
       -41.58320656700231
      ],
      [
       145.18973135184882,
       -41.584299187719424
      ],
      [
       145.19040034610558,
       -41.58795643077762
      ],
      [
       145.18930585583138,
       -41.58867020796794
      ],
      [
       145.18711113504833,
       -41.5890311698551
      ],
      [
       145.18517371062728,
       -41.590391328725595
      ],
      [
       145.18537558632616,
       -41.5921237147041
      ],
      [
       145.1823193632194,
       -41.59628161601951
      ],
      [
       145.18233418721815,
       -41.59782287093558
      ],
      [
       145.1810881547488,
       -41.59855460369649
      ],
      [
       145.17873486604677,
       -41.598848771298
      ]
     ]
    ]
   },
   "properties": {
    "name": "Corinna Road (Superseded)",
    "source": "Placenames Tasmania register extent (LIST Named Features layer)",
    "note": "Superseded alignment corridor of the Corinna Road.",
    "accuracy": "corridor polygon, not a surveyed centreline"
   }
  },
  {
   "type": "Feature",
   "geometry": {
    "type": "Polygon",
    "coordinates": [
     [
      [
       145.0923911742862,
       -41.79206802584952
      ],
      [
       145.09878238300385,
       -41.79943865168009
      ],
      [
       145.09958764809588,
       -41.801450175160504
      ],
      [
       145.1030021103548,
       -41.80304199514761
      ],
      [
       145.10652206896413,
       -41.80542763677764
      ],
      [
       145.10732005141418,
       -41.80964285922749
      ],
      [
       145.10799851211732,
       -41.81067915232899
      ],
      [
       145.11876829458268,
       -41.81562417200016
      ],
      [
       145.1177244315613,
       -41.81477448891264
      ],
      [
       145.1079367044325,
       -41.81035141081717
      ],
      [
       145.10673342907575,
       -41.80534117593222
      ],
      [
       145.10315184873292,
       -41.802900978037265
      ],
      [
       145.09961710924395,
       -41.801167240296174
      ],
      [
       145.09899309992173,
       -41.799351555263655
      ],
      [
       145.09261855135932,
       -41.79200887771633
      ],
      [
       145.09167868270515,
       -41.787204436848356
      ],
      [
       145.09063724513499,
       -41.78628443202806
      ],
      [
       145.08825246778733,
       -41.78528615490633
      ],
      [
       145.0874230928113,
       -41.78435494701684
      ],
      [
       145.08705383672057,
       -41.780978442813506
      ],
      [
       145.09269754740882,
       -41.773241309073164
      ],
      [
       145.0931591853451,
       -41.77185604699657
      ],
      [
       145.09259461934187,
       -41.77037129892933
      ],
      [
       145.09044063356365,
       -41.768282865981504
      ],
      [
       145.08961639784945,
       -41.76524120695213
      ],
      [
       145.0856117981444,
       -41.76110805304064
      ],
      [
       145.08549840111112,
       -41.75927042082587
      ],
      [
       145.08657882107306,
       -41.75529167467603
      ],
      [
       145.0874022141675,
       -41.74014590624477
      ],
      [
       145.08917529989216,
       -41.73817169593872
      ],
      [
       145.09602977878498,
       -41.73271000180246
      ],
      [
       145.09823919061614,
       -41.732225637119676
      ],
      [
       145.10062513577373,
       -41.73106741670828
      ],
      [
       145.10449799933897,
       -41.73076824872661
      ],
      [
       145.1078425313463,
       -41.731452580771006
      ],
      [
       145.11255447708254,
       -41.72995526704367
      ],
      [
       145.11763715843483,
       -41.72391666072921
      ],
      [
       145.12237919234317,
       -41.721525551956184
      ],
      [
       145.12493018227295,
       -41.7213467301673
      ],
      [
       145.1290888547273,
       -41.72263067810318
      ],
      [
       145.12953535425441,
       -41.7233306021943
      ],
      [
       145.12800240886654,
       -41.724747142032165
      ],
      [
       145.1277745583812,
       -41.7259230997419
      ],
      [
       145.12841644777086,
       -41.72623217931974
      ],
      [
       145.13136117378122,
       -41.72602951083919
      ],
      [
       145.13223975038358,
       -41.72501049282704
      ],
      [
       145.13108171238792,
       -41.725962043929684
      ],
      [
       145.1279862499712,
       -41.725837224931986
      ],
      [
       145.12821320483616,
       -41.724833922746114
      ],
      [
       145.1297709257596,
       -41.72336828813531
      ],
      [
       145.12921569415047,
       -41.722477508683795
      ],
      [
       145.12498210399804,
       -41.72117077089719
      ],
      [
       145.1222684049158,
       -41.72136555695996
      ],
      [
       145.11745004115775,
       -41.72380338322081
      ],
      [
       145.11241179497102,
       -41.72981006207245
      ],
      [
       145.10780574084384,
       -41.731274446274035
      ],
      [
       145.10452081295392,
       -41.730588866733655
      ],
      [
       145.1005743558073,
       -41.73089138014746
      ],
      [
       145.09591837780826,
       -41.73255037788987
      ],
      [
       145.08899404232568,
       -41.73805337527999
      ],
      [
       145.08717534374424,
       -41.74008613175723
      ],
      [
       145.0863386268374,
       -41.75528220091329
      ],
      [
       145.0852593073118,
       -41.75925016912242
      ],
      [
       145.08537421710798,
       -41.76113686977131
      ],
      [
       145.0894012612204,
       -41.765321843005786
      ],
      [
       145.09021743724992,
       -41.76835016783137
      ],
      [
       145.092388945566,
       -41.77046487391024
      ],
      [
       145.09291855991816,
       -41.77186090492358
      ],
      [
       145.0924815933128,
       -41.773161904297545
      ],
      [
       145.08683414383634,
       -41.78090481789445
      ],
      [
       145.08669035769532,
       -41.782341602205754
      ],
      [
       145.08746766901234,
       -41.78487271204304
      ],
      [
       145.0914641722018,
       -41.7872862241502
      ],
      [
       145.0923911742862,
       -41.79206802584952
      ]
     ]
    ]
   },
   "properties": {
    "name": "Corinna Track (Superseded)",
    "source": "Placenames Tasmania register extent (LIST Named Features layer)",
    "note": "Superseded register name for the southern approach track.",
    "accuracy": "corridor polygon, not a surveyed centreline",
    "also_named": "OLD CORINNA TRACK (SUPERSEDED)"
   }
  },
  {
   "type": "Feature",
   "geometry": {
    "type": "Polygon",
    "coordinates": [
     [
      [
       145.21703938998607,
       -41.73955904594002
      ],
      [
       145.21594169272632,
       -41.738295578669536
      ],
      [
       145.2144694617735,
       -41.73817144121779
      ],
      [
       145.21446731030838,
       -41.73766232916053
      ],
      [
       145.21402094283357,
       -41.73749631729002
      ],
      [
       145.21010223195114,
       -41.737412934805704
      ],
      [
       145.20836655656655,
       -41.73691305591319
      ],
      [
       145.20654404014505,
       -41.73779876331599
      ],
      [
       145.2054671972746,
       -41.73765826968109
      ],
      [
       145.2056601464145,
       -41.7353975267644
      ],
      [
       145.20494338783578,
       -41.73481247525382
      ],
      [
       145.20198586083268,
       -41.73498045685103
      ],
      [
       145.20115190534707,
       -41.73363727085225
      ],
      [
       145.19912565281578,
       -41.73419215414895
      ],
      [
       145.19905554739267,
       -41.73343852190916
      ],
      [
       145.2008273709844,
       -41.732298304289365
      ],
      [
       145.20229869284216,
       -41.730827218027265
      ],
      [
       145.20226906370914,
       -41.73036168475686
      ],
      [
       145.20143958273195,
       -41.72985597678695
      ],
      [
       145.20159089406013,
       -41.72883721723894
      ],
      [
       145.20127280960116,
       -41.728553943213214
      ],
      [
       145.19457956931868,
       -41.729147854914586
      ],
      [
       145.19204900079026,
       -41.731561333087264
      ],
      [
       145.18995500091353,
       -41.730157915765716
      ],
      [
       145.18704783526186,
       -41.729831875052035
      ],
      [
       145.18507651381188,
       -41.72855083113002
      ],
      [
       145.1836943461528,
       -41.728173378300646
      ],
      [
       145.18272333200937,
       -41.727212758157
      ],
      [
       145.1816171986708,
       -41.72695074586218
      ],
      [
       145.18136605397189,
       -41.72451649322902
      ],
      [
       145.17866467438543,
       -41.722594555290776
      ],
      [
       145.1775774469903,
       -41.722174731037434
      ],
      [
       145.17601729073414,
       -41.72202702902101
      ],
      [
       145.17423475024108,
       -41.72295031811301
      ],
      [
       145.17215987459844,
       -41.72571008594083
      ],
      [
       145.1704094291139,
       -41.72678876110884
      ],
      [
       145.1696162957698,
       -41.72822265568116
      ],
      [
       145.16949824187012,
       -41.73006840029562
      ],
      [
       145.16622031724606,
       -41.73116168319094
      ],
      [
       145.16252621932068,
       -41.73141478694662
      ],
      [
       145.16035646631263,
       -41.732816990917144
      ],
      [
       145.15826180797083,
       -41.73320596224677
      ],
      [
       145.15669654119895,
       -41.73270076805351
      ],
      [
       145.15481473237546,
       -41.73098437783409
      ],
      [
       145.1536866487029,
       -41.73080783087509
      ],
      [
       145.15258868105028,
       -41.72934754297013
      ],
      [
       145.15078322183945,
       -41.728513205214426
      ],
      [
       145.14638428597908,
       -41.72723847996862
      ],
      [
       145.14923540843515,
       -41.72704276170367
      ],
      [
       145.14804614859352,
       -41.725997143090325
      ],
      [
       145.14926530436784,
       -41.725155313749
      ],
      [
       145.1491087747262,
       -41.72479757992126
      ],
      [
       145.14532466740596,
       -41.723495978194585
      ],
      [
       145.14468690038518,
       -41.72366268867423
      ],
      [
       145.14416305501373,
       -41.72294132969681
      ],
      [
       145.14058050988027,
       -41.722339117697125
      ],
      [
       145.1400058306436,
       -41.721587117166685
      ],
      [
       145.13884200570084,
       -41.721225138683415
      ],
      [
       145.13758924395168,
       -41.72156588203344
      ],
      [
       145.13690325087487,
       -41.72244814491781
      ],
      [
       145.13634487695884,
       -41.72244879193322
      ],
      [
       145.1360977719838,
       -41.721733825858
      ],
      [
       145.13544511898039,
       -41.72192583573573
      ],
      [
       145.13547976969588,
       -41.722265499913526
      ],
      [
       145.13596696290537,
       -41.72189014767388
      ],
      [
       145.13617914497547,
       -41.722581230154354
      ],
      [
       145.13695690724677,
       -41.722623925024195
      ],
      [
       145.13776079522145,
       -41.72169406379135
      ],
      [
       145.13878157962495,
       -41.72139959925224
      ],
      [
       145.1398619950952,
       -41.7217339237495
      ],
      [
       145.1404591879096,
       -41.72249590067295
      ],
      [
       145.14410654469415,
       -41.723118594897834
      ],
      [
       145.14457517511667,
       -41.723822718178916
      ],
      [
       145.14525930957913,
       -41.72367055328258
      ],
      [
       145.14897134326753,
       -41.72494571605892
      ],
      [
       145.14778052484886,
       -41.725999708884345
      ],
      [
       145.1490084391972,
       -41.72692033088606
      ],
      [
       145.1464072262565,
       -41.72702855586837
      ],
      [
       145.1460662796736,
       -41.727314980273555
      ],
      [
       145.15245557857293,
       -41.72949783403733
      ],
      [
       145.15353551703782,
       -41.73094867804389
      ],
      [
       145.1546846877633,
       -41.73113625390008
      ],
      [
       145.15655709302249,
       -41.7328503540869
      ],
      [
       145.15823922522284,
       -41.73338657979403
      ],
      [
       145.16046438182602,
       -41.73297851601377
      ],
      [
       145.1626054237793,
       -41.73158665025523
      ],
      [
       145.16626971919686,
       -41.731338475210414
      ],
      [
       145.16964413456046,
       -41.730212664109914
      ],
      [
       145.17002691568612,
       -41.729616519739665
      ],
      [
       145.1698549206486,
       -41.728254335796976
      ],
      [
       145.17062917769366,
       -41.72686550531762
      ],
      [
       145.17235004075758,
       -41.725820377268526
      ],
      [
       145.1744263087889,
       -41.72305959505464
      ],
      [
       145.17610384880157,
       -41.722196262323834
      ],
      [
       145.17751529255582,
       -41.72235018268447
      ],
      [
       145.18116494902753,
       -41.72461557316824
      ],
      [
       145.18147127723435,
       -41.72709578968782
      ],
      [
       145.18691874915214,
       -41.72998402669713
      ],
      [
       145.18982601002523,
       -41.7303135500383
      ],
      [
       145.19197712658442,
       -41.7317340333152
      ],
      [
       145.1932332812704,
       -41.731016430667225
      ],
      [
       145.19466198525444,
       -41.72932078420737
      ],
      [
       145.20115947095843,
       -41.7287140778582
      ],
      [
       145.20121275722437,
       -41.72991685891833
      ],
      [
       145.20206819502172,
       -41.73077587179323
      ],
      [
       145.19885569829316,
       -41.73333797406183
      ],
      [
       145.19894666619035,
       -41.734318207132354
      ],
      [
       145.20110603287708,
       -41.73381539075238
      ],
      [
       145.20187832800158,
       -41.73514292103006
      ],
      [
       145.2048049583489,
       -41.73495975572227
      ],
      [
       145.20542305226496,
       -41.73542877297917
      ],
      [
       145.20539443014337,
       -41.737832282764316
      ],
      [
       145.20660944378594,
       -41.73797236109028
      ],
      [
       145.20836130142212,
       -41.73709345724479
      ],
      [
       145.21005909305458,
       -41.73759108110296
      ],
      [
       145.21397028683472,
       -41.73767242691344
      ],
      [
       145.21427567270885,
       -41.738286812264214
      ],
      [
       145.2156692363956,
       -41.738365115968925
      ],
      [
       145.21703938998607,
       -41.73955904594002
      ]
     ]
    ]
   },
   "properties": {
    "name": "Dennis Track",
    "source": "Placenames Tasmania register extent (LIST Named Features layer)",
    "note": "Registered track corridor south-east of Corinna.",
    "accuracy": "corridor polygon, not a surveyed centreline"
   }
  },
  {
   "type": "Feature",
   "geometry": {
    "type": "Polygon",
    "coordinates": [
     [
      [
       145.0297961152328,
       -41.76914584186596
      ],
      [
       145.0333094846995,
       -41.77019060988315
      ],
      [
       145.03452968341793,
       -41.77101384398019
      ],
      [
       145.03342550661,
       -41.77003186704904
      ],
      [
       145.03006255734272,
       -41.76899972989886
      ],
      [
       145.02626914796767,
       -41.76966086682789
      ],
      [
       145.02059536078536,
       -41.76871619418794
      ],
      [
       145.0197314410952,
       -41.76738041672952
      ],
      [
       145.01884358040434,
       -41.766860564065695
      ],
      [
       145.01201978077515,
       -41.766924905258044
      ],
      [
       145.00939668397584,
       -41.76777462116961
      ],
      [
       145.00810249821396,
       -41.76757978422516
      ],
      [
       145.00780175393493,
       -41.767996470863196
      ],
      [
       145.0097921421268,
       -41.76788350091291
      ],
      [
       145.01204667274143,
       -41.76710397000314
      ],
      [
       145.01817417831248,
       -41.7669917086996
      ],
      [
       145.01939423419876,
       -41.767347563290954
      ],
      [
       145.02052482596764,
       -41.76889011907275
      ],
      [
       145.02625995910063,
       -41.76984095705735
      ],
      [
       145.0297961152328,
       -41.76914584186596
      ]
     ]
    ]
   },
   "properties": {
    "name": "Duck Creek Track",
    "source": "Placenames Tasmania register extent (LIST Named Features layer)",
    "note": "Registered track corridor west of the Pieman heads.",
    "accuracy": "corridor polygon, not a surveyed centreline"
   }
  },
  {
   "type": "Feature",
   "geometry": {
    "type": "Polygon",
    "coordinates": [
     [
      [
       145.34201541800113,
       -41.71812908731336
      ],
      [
       145.3419028321466,
       -41.718727040727465
      ],
      [
       145.3426611027728,
       -41.71906773630658
      ],
      [
       145.34147114314348,
       -41.71945832502032
      ],
      [
       145.3422448028089,
       -41.72005915394132
      ],
      [
       145.34212829311315,
       -41.720570500169515
      ],
      [
       145.34125711593381,
       -41.72111417366503
      ],
      [
       145.3395463409505,
       -41.72088399726183
      ],
      [
       145.33930255255547,
       -41.72118556672269
      ],
      [
       145.34011912384366,
       -41.72238261328451
      ],
      [
       145.34147243761583,
       -41.723371678045226
      ],
      [
       145.34251998013664,
       -41.723454714020576
      ],
      [
       145.3430057063973,
       -41.72435507625417
      ],
      [
       145.34433363467784,
       -41.72510723882265
      ],
      [
       145.34698960263,
       -41.72787567378895
      ],
      [
       145.34925475312792,
       -41.72753132480975
      ],
      [
       145.3473523171889,
       -41.73033563905173
      ],
      [
       145.34789961667403,
       -41.731969491009274
      ],
      [
       145.3506530087154,
       -41.73438064227573
      ],
      [
       145.35309590885862,
       -41.735013552767654
      ],
      [
       145.3547557179243,
       -41.73499374120585
      ],
      [
       145.35457588778078,
       -41.73709969398988
      ],
      [
       145.35555270324434,
       -41.73853997575489
      ],
      [
       145.35831350459017,
       -41.74059130003449
      ],
      [
       145.35787105107508,
       -41.741458375771096
      ],
      [
       145.35817299011345,
       -41.74259651111614
      ],
      [
       145.35812897176623,
       -41.741371976116916
      ],
      [
       145.35861108230782,
       -41.74064866032902
      ],
      [
       145.35508811434235,
       -41.737615700097976
      ],
      [
       145.35470147315584,
       -41.73666059790379
      ],
      [
       145.3549413323199,
       -41.73487548709036
      ],
      [
       145.35078516975838,
       -41.73422967484368
      ],
      [
       145.34794427462182,
       -41.731600586927925
      ],
      [
       145.3475861926748,
       -41.730378360277555
      ],
      [
       145.34945378925215,
       -41.72742988408874
      ],
      [
       145.34857847083933,
       -41.727225765888804
      ],
      [
       145.34713242398038,
       -41.72772998811389
      ],
      [
       145.34452019320275,
       -41.724993557117074
      ],
      [
       145.34320000570503,
       -41.724248722054895
      ],
      [
       145.34271055772416,
       -41.72333988690515
      ],
      [
       145.3416320098513,
       -41.723236760028755
      ],
      [
       145.339526608557,
       -41.72111694683738
      ],
      [
       145.3412902422082,
       -41.721293836230544
      ],
      [
       145.34231223215076,
       -41.720687782243424
      ],
      [
       145.34250164911492,
       -41.72005596366783
      ],
      [
       145.34177219913795,
       -41.719498838774534
      ],
      [
       145.34290332720096,
       -41.719024290105295
      ],
      [
       145.3420445072466,
       -41.71835440490222
      ],
      [
       145.3442814030339,
       -41.718237197691906
      ],
      [
       145.3444451102147,
       -41.71749261019125
      ],
      [
       145.34378276079613,
       -41.71691466896152
      ],
      [
       145.34568779017138,
       -41.71638389073978
      ],
      [
       145.3459671743096,
       -41.7154317518758
      ],
      [
       145.3455241386862,
       -41.71624926918559
      ],
      [
       145.3435585763355,
       -41.716827355871445
      ],
      [
       145.34421754269874,
       -41.717551692257175
      ],
      [
       145.34411348365282,
       -41.718107863777405
      ],
      [
       145.34201541800113,
       -41.71812908731336
      ]
     ]
    ]
   },
   "properties": {
    "name": "Salmons Track",
    "source": "Placenames Tasmania register extent (LIST Named Features layer)",
    "note": "Registered track corridor, Wilson River country.",
    "accuracy": "corridor polygon, not a surveyed centreline"
   }
  },
  {
   "type": "Feature",
   "geometry": {
    "type": "Polygon",
    "coordinates": [
     [
      [
       145.00868606089054,
       -41.783277212768446
      ],
      [
       145.01128413242262,
       -41.78414564102499
      ],
      [
       145.0110154211683,
       -41.78473602426676
      ],
      [
       145.01124684605017,
       -41.7855140722522
      ],
      [
       145.01300956970798,
       -41.786867755876095
      ],
      [
       145.0118655741768,
       -41.78960171409681
      ],
      [
       145.0144717323431,
       -41.79014708977591
      ],
      [
       145.0153568980881,
       -41.7908200042705
      ],
      [
       145.01573267504952,
       -41.79430019790859
      ],
      [
       145.0162261977885,
       -41.794312735291264
      ],
      [
       145.01642761804158,
       -41.793601609999435
      ],
      [
       145.01745020985535,
       -41.79387621593748
      ],
      [
       145.02145457240516,
       -41.796860916120124
      ],
      [
       145.0204690998773,
       -41.7987586566751
      ],
      [
       145.02318597719898,
       -41.80219046902607
      ],
      [
       145.02701896724372,
       -41.80385850427164
      ],
      [
       145.02883643513331,
       -41.80527217926357
      ],
      [
       145.03190494359993,
       -41.80528422099189
      ],
      [
       145.03356515870405,
       -41.80495484612888
      ],
      [
       145.0344860396681,
       -41.805608075204276
      ],
      [
       145.03474361181287,
       -41.80708089876977
      ],
      [
       145.03535051361885,
       -41.807926152132815
      ],
      [
       145.0347079082719,
       -41.80553785409791
      ],
      [
       145.03368214181194,
       -41.804796828840644
      ],
      [
       145.02890321678987,
       -41.80509768878827
      ],
      [
       145.02717214616933,
       -41.803719067954404
      ],
      [
       145.0233866177143,
       -41.80206706387131
      ],
      [
       145.0207014527187,
       -41.79871141972433
      ],
      [
       145.02165472513533,
       -41.796760558025376
      ],
      [
       145.0175794271191,
       -41.79372408578622
      ],
      [
       145.0163468047003,
       -41.79342744873426
      ],
      [
       145.01586496455158,
       -41.794129985283185
      ],
      [
       145.01556043836518,
       -41.7907197110611
      ],
      [
       145.01458637444136,
       -41.78998834476274
      ],
      [
       145.0120719091127,
       -41.78949825693958
      ],
      [
       145.0132713917824,
       -41.786850871310875
      ],
      [
       145.0114130730053,
       -41.78535941978723
      ],
      [
       145.01147703934174,
       -41.78399304903551
      ],
      [
       145.0110142839012,
       -41.78355387112805
      ],
      [
       145.00884491806704,
       -41.78313987518688
      ],
      [
       145.00880114316328,
       -41.78274629100863
      ],
      [
       145.0077726790625,
       -41.781964675920236
      ],
      [
       145.00828581022745,
       -41.78080024677123
      ],
      [
       145.00749696813546,
       -41.77834849520995
      ],
      [
       145.00859020525985,
       -41.777684543782485
      ],
      [
       145.0088916241736,
       -41.776899120168174
      ],
      [
       145.0104323489719,
       -41.77578152532665
      ],
      [
       145.0101922445678,
       -41.77448155987803
      ],
      [
       145.01067279204085,
       -41.77348543980442
      ],
      [
       145.0105643806574,
       -41.77293434100039
      ],
      [
       145.00943365593795,
       -41.77231493624007
      ],
      [
       145.00948158914323,
       -41.77157442327365
      ],
      [
       145.00801299636726,
       -41.76892505005251
      ],
      [
       145.0080320137018,
       -41.76796121978442
      ],
      [
       145.00704224722685,
       -41.76760844997697
      ],
      [
       145.0052669516466,
       -41.767888024806794
      ],
      [
       145.00402431570737,
       -41.76634035073666
      ],
      [
       145.00285503978742,
       -41.766090393731176
      ],
      [
       145.00207499130374,
       -41.76507272024897
      ],
      [
       144.99912010983908,
       -41.7639388502291
      ],
      [
       144.99712301662194,
       -41.762243242861466
      ],
      [
       144.99854961764993,
       -41.75962767384237
      ],
      [
       144.99820584227217,
       -41.75891052092915
      ],
      [
       144.99915314089208,
       -41.758319396696024
      ],
      [
       144.9995039141459,
       -41.75698064992003
      ],
      [
       145.00083867141925,
       -41.75655442821801
      ],
      [
       145.00153900969283,
       -41.75536983701851
      ],
      [
       145.00275862181135,
       -41.754905001682616
      ],
      [
       145.00321654341735,
       -41.75406792194889
      ],
      [
       145.00418549323226,
       -41.75373592832499
      ],
      [
       145.00440332840046,
       -41.751675740021774
      ],
      [
       145.00415610574606,
       -41.75079618533391
      ],
      [
       145.0035260579485,
       -41.75034969485812
      ],
      [
       145.0039931702181,
       -41.74501110930901
      ],
      [
       145.00191555561216,
       -41.744268499012954
      ],
      [
       145.00074111527772,
       -41.74121013296388
      ],
      [
       144.9995854793771,
       -41.74114462314951
      ],
      [
       144.99969113203426,
       -41.74073474323828
      ],
      [
       144.99926654511188,
       -41.74029245726586
      ],
      [
       144.99669508886498,
       -41.739629260888265
      ],
      [
       144.99633281627717,
       -41.73885591827298
      ],
      [
       145.00052929702525,
       -41.73564317367507
      ],
      [
       145.000285867058,
       -41.73491183024739
      ],
      [
       144.99927123970758,
       -41.73408883486905
      ],
      [
       145.0005791023196,
       -41.7322270388848
      ],
      [
       145.00043051288677,
       -41.730050013826094
      ],
      [
       144.99967009259203,
       -41.72873779117081
      ],
      [
       145.00449937267734,
       -41.726874015834355
      ],
      [
       145.00594482305493,
       -41.72519791170406
      ],
      [
       145.00639281468375,
       -41.72534803480906
      ],
      [
       145.00620313181824,
       -41.726196905972245
      ],
      [
       145.00661560136578,
       -41.7269641719986
      ],
      [
       145.0080178005574,
       -41.72676504573595
      ],
      [
       145.00948191074005,
       -41.72741076274262
      ],
      [
       145.00812932011175,
       -41.726597312840966
      ],
      [
       145.00676544484676,
       -41.7268182603307
      ],
      [
       145.00656410544212,
       -41.72515275596672
      ],
      [
       145.00589565197123,
       -41.725019918761205
      ],
      [
       145.0043128437968,
       -41.72672048778959
      ],
      [
       145.00290221661126,
       -41.7269139027488
      ],
      [
       145.0021924837564,
       -41.72766456980642
      ],
      [
       144.99945541410372,
       -41.72864865921196
      ],
      [
       145.00019217636714,
       -41.730076144117795
      ],
      [
       145.00033880926927,
       -41.732220390723434
      ],
      [
       144.99903157817286,
       -41.734103932063526
      ],
      [
       145.0002940102861,
       -41.73560557805708
      ],
      [
       144.996096153319,
       -41.73882378489263
      ],
      [
       144.99655080415897,
       -41.73977352400884
      ],
      [
       144.99913464458038,
       -41.74044336486694
      ],
      [
       144.99947181374753,
       -41.741303863749025
      ],
      [
       145.00056911934183,
       -41.74133718631487
      ],
      [
       145.00171731988684,
       -41.74437085015649
      ],
      [
       145.00378162864683,
       -41.74509852686187
      ],
      [
       145.0032855016918,
       -41.75035581973423
      ],
      [
       145.00416286017864,
       -41.751680255675936
      ],
      [
       145.0040110556754,
       -41.7536053999487
      ],
      [
       145.00303078169804,
       -41.753953097285766
      ],
      [
       145.00260816388274,
       -41.75476374130193
      ],
      [
       145.0013614477955,
       -41.75524742400965
      ],
      [
       145.00067466779447,
       -41.756420329102056
      ],
      [
       144.99929774360166,
       -41.7568872040392
      ],
      [
       144.9989464511216,
       -41.75822612900308
      ],
      [
       144.99795535244508,
       -41.758880529850074
      ],
      [
       144.99831420963815,
       -41.759588256877976
      ],
      [
       144.99683073087962,
       -41.762033279062756
      ],
      [
       144.99735667561384,
       -41.76295654388147
      ],
      [
       144.9989694300266,
       -41.764079431087715
      ],
      [
       145.0019374700135,
       -41.76522102882687
      ],
      [
       145.00273210084924,
       -41.766246176097226
      ],
      [
       145.00388111796283,
       -41.76648922791362
      ],
      [
       145.00513792841897,
       -41.7680412239535
      ],
      [
       145.00774719924775,
       -41.768038752969986
      ],
      [
       145.00778020335133,
       -41.768971303287515
      ],
      [
       145.00925073558994,
       -41.771627920982475
      ],
      [
       145.00921021887567,
       -41.77238731417402
      ],
      [
       145.01043212079983,
       -41.773486876846064
      ],
      [
       145.00995189941526,
       -41.7744698640803
      ],
      [
       145.01021277556362,
       -41.77570417568016
      ],
      [
       145.0072589810605,
       -41.7783160359301
      ],
      [
       145.00804500244251,
       -41.78080500487958
      ],
      [
       145.00753585620407,
       -41.78199914293503
      ],
      [
       145.00868606089054,
       -41.783277212768446
      ]
     ]
    ]
   },
   "properties": {
    "name": "Top Farm Track",
    "source": "Placenames Tasmania register extent (LIST Named Features layer)",
    "note": "Registered track corridor near the coast.",
    "accuracy": "corridor polygon, not a surveyed centreline"
   }
  },
  {
   "type": "Feature",
   "geometry": {
    "type": "Polygon",
    "coordinates": [
     [
      [
       145.27860862239234,
       -41.81996784111256
      ],
      [
       145.27850750173576,
       -41.822153143795276
      ],
      [
       145.27719782722176,
       -41.822902194273894
      ],
      [
       145.27763302324774,
       -41.82439332574545
      ],
      [
       145.27834816485884,
       -41.824877344905495
      ],
      [
       145.2806931773822,
       -41.82552354623078
      ],
      [
       145.28210510622665,
       -41.82820701624096
      ],
      [
       145.282553219128,
       -41.82856217698686
      ],
      [
       145.284763539156,
       -41.82899904305372
      ],
      [
       145.28539962273396,
       -41.82991461529996
      ],
      [
       145.28562289360787,
       -41.832140381937755
      ],
      [
       145.28519806773366,
       -41.83322381705721
      ],
      [
       145.28615665368508,
       -41.83444941802789
      ],
      [
       145.28519475564516,
       -41.83517927623597
      ],
      [
       145.28597526226966,
       -41.83610494274137
      ],
      [
       145.28560370469512,
       -41.837388752211
      ],
      [
       145.28583554010697,
       -41.837707253840435
      ],
      [
       145.28621507561962,
       -41.83608750827237
      ],
      [
       145.2854397109518,
       -41.83519395207899
      ],
      [
       145.286399153896,
       -41.83444470473009
      ],
      [
       145.2854384083946,
       -41.833203432755774
      ],
      [
       145.28586431943378,
       -41.832146144924806
      ],
      [
       145.28548010369855,
       -41.82958160392837
      ],
      [
       145.28488963207909,
       -41.82884201885196
      ],
      [
       145.28258387323876,
       -41.82834573188679
      ],
      [
       145.2810448417648,
       -41.82552749773242
      ],
      [
       145.27808469707088,
       -41.824559106106996
      ],
      [
       145.27740689483278,
       -41.82306524587741
      ],
      [
       145.27869429741594,
       -41.822268578737656
      ],
      [
       145.2790265743581,
       -41.82134891927476
      ],
      [
       145.27883724632713,
       -41.81991119909649
      ],
      [
       145.27724160302392,
       -41.81752441507045
      ],
      [
       145.279546113206,
       -41.8157818673294
      ],
      [
       145.279218908152,
       -41.81495342406067
      ],
      [
       145.27757393655992,
       -41.81344189307445
      ],
      [
       145.27851596835734,
       -41.81095493381544
      ],
      [
       145.2775920232398,
       -41.80895587832298
      ],
      [
       145.28134520156485,
       -41.80572248332002
      ],
      [
       145.2812715253385,
       -41.80457022488725
      ],
      [
       145.28265061536945,
       -41.80260076670562
      ],
      [
       145.2820144482482,
       -41.800872615209634
      ],
      [
       145.28233252282567,
       -41.797507609080505
      ],
      [
       145.28085180009842,
       -41.7967952481345
      ],
      [
       145.28088036921943,
       -41.79615069106666
      ],
      [
       145.28036547735644,
       -41.79554064216843
      ],
      [
       145.28040934568503,
       -41.79369800685037
      ],
      [
       145.2791749167542,
       -41.79327050206727
      ],
      [
       145.2812037052295,
       -41.791283921029304
      ],
      [
       145.2817218489938,
       -41.79020414390161
      ],
      [
       145.28362841718314,
       -41.78914938719552
      ],
      [
       145.2833828150895,
       -41.78892732198674
      ],
      [
       145.28153388640206,
       -41.790076656821704
      ],
      [
       145.2789324704422,
       -41.793264235283544
      ],
      [
       145.28018520614017,
       -41.793767460017875
      ],
      [
       145.28012173118222,
       -41.795558326098394
      ],
      [
       145.28065514091645,
       -41.796909690737685
      ],
      [
       145.28210061285358,
       -41.79758171988608
      ],
      [
       145.2817714997779,
       -41.80087552221824
      ],
      [
       145.28241337659114,
       -41.802218144968144
      ],
      [
       145.28103468631048,
       -41.80452801708783
      ],
      [
       145.28113133784854,
       -41.80563915800322
      ],
      [
       145.2773159161558,
       -41.80908036429958
      ],
      [
       145.2782747931614,
       -41.81096422594054
      ],
      [
       145.27733702297166,
       -41.81347507708013
      ],
      [
       145.2793050781473,
       -41.81578044395638
      ],
      [
       145.277006864257,
       -41.81763242569956
      ],
      [
       145.27860862239234,
       -41.81996784111256
      ]
     ]
    ]
   },
   "properties": {
    "name": "Trail Creek Track",
    "source": "Placenames Tasmania register extent (LIST Named Features layer)",
    "note": "Registered track corridor, Trail Creek country.",
    "accuracy": "corridor polygon, not a surveyed centreline"
   }
  }
 ]
}